[{"OBJECT_NAME":"STARLINK-2232","OBJECT_ID":"2021-041AB","EPOCH":"2026-03-09T19:12:32.089824","MEAN_MOTION":15.30210888,"ECCENTRICITY":0.00013627,"INCLINATION":53.1585,"RA_OF_ASC_NODE":126.189,"ARG_OF_PERICENTER":96.9551,"MEAN_ANOMALY":263.1605,"EPHEMERIS_TYPE":0,"CLASSIFICATION_TYPE":"U","NORAD_CAT_ID":48578,"ELEMENT_SET_NO":999,"REV_AT_EPOCH":26529,"BSTAR":0.00053127328,"MEAN_MOTION_DOT":0.00015414,"MEAN_MOTION_DDOT":0},{"OBJECT_NAME":"USA 40 R\/B DEB","OBJECT_ID":"1989-061BF","EPOCH":"2026-03-09T11:01:29.535168","MEAN_MOTION":9.58078532,"ECCENTRICITY":0.26908089,"INCLINATION":57,"RA_OF_ASC_NODE":145.4523,"ARG_OF_PERICENTER":62.5186,"MEAN_ANOMALY":322.3123,"EPHEMERIS_TYPE":0,"CLASSIFICATION_TYPE":"U","NORAD_CAT_ID":23383,"ELEMENT_SET_NO":999,"REV_AT_EPOCH":23463,"BSTAR":0.0027511821,"MEAN_MOTION_DOT":6.281e-5,"MEAN_MOTION_DDOT":0}]
